CCSDS_OMM_VERS = 2.0
CREATION_DATE  = 
ORIGINATOR     = 

OBJECT_NAME    = SL-16 R/B
OBJECT_ID      = 1993-016B
CENTER_NAME    = EARTH
REF_FRAME      = TEME
TIME_SYSTEM    = UTC
MEAN_ELEMENT_THEORY = SGP/SGP4

EPOCH          = 2026-02-23T05:17:24.101376
MEAN_MOTION    = 14.15300207
ECCENTRICITY   = .00108826
INCLINATION    = 71.0044
RA_OF_ASC_NODE = 245.5727
ARG_OF_PERICENTER = 334.1464
MEAN_ANOMALY   = 25.9114

EPHEMERIS_TYPE = 0
CLASSIFICATION_TYPE = U
NORAD_CAT_ID   = 22566
ELEMENT_SET_NO = 999
REV_AT_EPOCH   = 70012
BSTAR          = .54245037E-4
MEAN_MOTION_DOT = .58E-6
MEAN_MOTION_DDOT = 0

CCSDS_OMM_VERS = 2.0
CREATION_DATE  = 
ORIGINATOR     = 

OBJECT_NAME    = COSMOS 2242
OBJECT_ID      = 1993-024A
CENTER_NAME    = EARTH
REF_FRAME      = TEME
TIME_SYSTEM    = UTC
MEAN_ELEMENT_THEORY = SGP/SGP4

EPOCH          = 2026-02-23T03:02:11.480064
MEAN_MOTION    = 14.96484560
ECCENTRICITY   = .00163962
INCLINATION    = 82.5168
RA_OF_ASC_NODE = 280.6483
ARG_OF_PERICENTER = 359.7398
MEAN_ANOMALY   = 0.3813

EPHEMERIS_TYPE = 0
CLASSIFICATION_TYPE = U
NORAD_CAT_ID   = 22626
ELEMENT_SET_NO = 999
REV_AT_EPOCH   = 77821
BSTAR          = .16075244E-3
MEAN_MOTION_DOT = .1855E-4
MEAN_MOTION_DDOT = 0

CCSDS_OMM_VERS = 2.0
CREATION_DATE  = 
ORIGINATOR     = 

OBJECT_NAME    = SL-16 R/B
OBJECT_ID      = 1993-059B
CENTER_NAME    = EARTH
REF_FRAME      = TEME
TIME_SYSTEM    = UTC
MEAN_ELEMENT_THEORY = SGP/SGP4

EPOCH          = 2026-02-23T03:34:25.749696
MEAN_MOTION    = 14.17228205
ECCENTRICITY   = .00191032
INCLINATION    = 70.9899
RA_OF_ASC_NODE = 41.7892
ARG_OF_PERICENTER = 236.5156
MEAN_ANOMALY   = 123.4143

EPHEMERIS_TYPE = 0
CLASSIFICATION_TYPE = U
NORAD_CAT_ID   = 22803
ELEMENT_SET_NO = 999
REV_AT_EPOCH   = 67747
BSTAR          = .11285114E-3
MEAN_MOTION_DOT = .18E-5
MEAN_MOTION_DDOT = 0

CCSDS_OMM_VERS = 2.0
CREATION_DATE  = 
ORIGINATOR     = 

OBJECT_NAME    = ARIANE 40 R/B
OBJECT_ID      = 1993-061H
CENTER_NAME    = EARTH
REF_FRAME      = TEME
TIME_SYSTEM    = UTC
MEAN_ELEMENT_THEORY = SGP/SGP4

EPOCH          = 2026-02-23T04:10:15.695328
MEAN_MOTION    = 14.32852503
ECCENTRICITY   = .00099672
INCLINATION    = 98.4949
RA_OF_ASC_NODE = 123.3459
ARG_OF_PERICENTER = 332.4090
MEAN_ANOMALY   = 27.6564

EPHEMERIS_TYPE = 0
CLASSIFICATION_TYPE = U
NORAD_CAT_ID   = 22830
ELEMENT_SET_NO = 999
REV_AT_EPOCH   = 69202
BSTAR          = .87071126E-4
MEAN_MOTION_DOT = .194E-5
MEAN_MOTION_DDOT = 0

CCSDS_OMM_VERS = 2.0
CREATION_DATE  = 
ORIGINATOR     = 

OBJECT_NAME    = COSMOS 2278
OBJECT_ID      = 1994-023A
CENTER_NAME    = EARTH
REF_FRAME      = TEME
TIME_SYSTEM    = UTC
MEAN_ELEMENT_THEORY = SGP/SGP4

EPOCH          = 2026-02-23T04:04:52.619808
MEAN_MOTION    = 14.14368380
ECCENTRICITY   = .0007284
INCLINATION    = 71.0521
RA_OF_ASC_NODE = 205.4728
ARG_OF_PERICENTER = 42.0488
MEAN_ANOMALY   = 318.1192

EPHEMERIS_TYPE = 0
CLASSIFICATION_TYPE = U
NORAD_CAT_ID   = 23087
ELEMENT_SET_NO = 999
REV_AT_EPOCH   = 64275
BSTAR          = .22161779E-3
MEAN_MOTION_DOT = .377E-5
MEAN_MOTION_DDOT = 0

CCSDS_OMM_VERS = 2.0
CREATION_DATE  = 
ORIGINATOR     = 

OBJECT_NAME    = SL-16 R/B
OBJECT_ID      = 1994-023B
CENTER_NAME    = EARTH
REF_FRAME      = TEME
TIME_SYSTEM    = UTC
MEAN_ELEMENT_THEORY = SGP/SGP4

EPOCH          = 2026-02-23T03:39:27.126720
MEAN_MOTION    = 14.15011806
ECCENTRICITY   = .00051046
INCLINATION    = 70.9990
RA_OF_ASC_NODE = 101.4193
ARG_OF_PERICENTER = 299.1887
MEAN_ANOMALY   = 60.8725

EPHEMERIS_TYPE = 0
CLASSIFICATION_TYPE = U
NORAD_CAT_ID   = 23088
ELEMENT_SET_NO = 999
REV_AT_EPOCH   = 64403
BSTAR          = .12301322E-3
MEAN_MOTION_DOT = .191E-5
MEAN_MOTION_DDOT = 0

CCSDS_OMM_VERS = 2.0
CREATION_DATE  = 
ORIGINATOR     = 

OBJECT_NAME    = SL-16 R/B
OBJECT_ID      = 1994-074B
CENTER_NAME    = EARTH
REF_FRAME      = TEME
TIME_SYSTEM    = UTC
MEAN_ELEMENT_THEORY = SGP/SGP4

EPOCH          = 2026-02-23T02:46:23.341152
MEAN_MOTION    = 14.79389168
ECCENTRICITY   = .00051318
INCLINATION    = 97.7130
RA_OF_ASC_NODE = 85.5223
ARG_OF_PERICENTER = 268.7421
MEAN_ANOMALY   = 148.3428

EPHEMERIS_TYPE = 0
CLASSIFICATION_TYPE = U
NORAD_CAT_ID   = 23343
ELEMENT_SET_NO = 999
REV_AT_EPOCH   = 68509
BSTAR          = .71046592E-4
MEAN_MOTION_DOT = .48E-5
MEAN_MOTION_DDOT = 0

CCSDS_OMM_VERS = 2.0
CREATION_DATE  = 
ORIGINATOR     = 

OBJECT_NAME    = SL-16 R/B
OBJECT_ID      = 1994-077B
CENTER_NAME    = EARTH
REF_FRAME      = TEME
TIME_SYSTEM    = UTC
MEAN_ELEMENT_THEORY = SGP/SGP4

EPOCH          = 2026-02-23T05:02:52.777248
MEAN_MOTION    = 14.15564059
ECCENTRICITY   = .00037834
INCLINATION    = 70.9843
RA_OF_ASC_NODE = 22.9484
ARG_OF_PERICENTER = 227.7164
MEAN_ANOMALY   = 132.3639

EPHEMERIS_TYPE = 0
CLASSIFICATION_TYPE = U
NORAD_CAT_ID   = 23405
ELEMENT_SET_NO = 999
REV_AT_EPOCH   = 61418
BSTAR          = .8451099E-5
MEAN_MOTION_DOT = -.31E-6
MEAN_MOTION_DDOT = 0

CCSDS_OMM_VERS = 2.0
CREATION_DATE  = 
ORIGINATOR     = 

OBJECT_NAME    = ARIANE 40+ R/B
OBJECT_ID      = 1995-021B
CENTER_NAME    = EARTH
REF_FRAME      = TEME
TIME_SYSTEM    = UTC
MEAN_ELEMENT_THEORY = SGP/SGP4

EPOCH          = 2026-02-23T03:29:22.398432
MEAN_MOTION    = 14.39760847
ECCENTRICITY   = .00069257
INCLINATION    = 98.4527
RA_OF_ASC_NODE = 125.8227
ARG_OF_PERICENTER = 176.3288
MEAN_ANOMALY   = 204.4845

EPHEMERIS_TYPE = 0
CLASSIFICATION_TYPE = U
NORAD_CAT_ID   = 23561
ELEMENT_SET_NO = 999
REV_AT_EPOCH   = 61715
BSTAR          = .10463752E-3
MEAN_MOTION_DOT = .284E-5
MEAN_MOTION_DDOT = 0

CCSDS_OMM_VERS = 2.0
CREATION_DATE  = 
ORIGINATOR     = 

OBJECT_NAME    = SL-16 R/B
OBJECT_ID      = 1995-058B
CENTER_NAME    = EARTH
REF_FRAME      = TEME
TIME_SYSTEM    = UTC
MEAN_ELEMENT_THEORY = SGP/SGP4

EPOCH          = 2026-02-23T03:30:08.421120
MEAN_MOTION    = 14.15494685
ECCENTRICITY   = .0011261
INCLINATION    = 71.0202
RA_OF_ASC_NODE = 210.7872
ARG_OF_PERICENTER = 151.4863
MEAN_ANOMALY   = 208.6879

EPHEMERIS_TYPE = 0
CLASSIFICATION_TYPE = U
NORAD_CAT_ID   = 23705
ELEMENT_SET_NO = 999
REV_AT_EPOCH   = 56579
BSTAR          = -.87305265E-4
MEAN_MOTION_DOT = -.218E-5
MEAN_MOTION_DDOT = 0

CCSDS_OMM_VERS = 2.0
CREATION_DATE  = 
ORIGINATOR     = 

OBJECT_NAME    = SL-16 R/B
OBJECT_ID      = 1996-051B
CENTER_NAME    = EARTH
REF_FRAME      = TEME
TIME_SYSTEM    = UTC
MEAN_ELEMENT_THEORY = SGP/SGP4

EPOCH          = 2026-02-23T03:38:42.171936
MEAN_MOTION    = 14.12411503
ECCENTRICITY   = .00163674
INCLINATION    = 70.7583
RA_OF_ASC_NODE = 206.0082
ARG_OF_PERICENTER = 169.0165
MEAN_ANOMALY   = 191.1315

EPHEMERIS_TYPE = 0
CLASSIFICATION_TYPE = U
NORAD_CAT_ID   = 24298
ELEMENT_SET_NO = 999
REV_AT_EPOCH   = 51959
BSTAR          = .83050906E-4
MEAN_MOTION_DOT = .104E-5
MEAN_MOTION_DDOT = 0

CCSDS_OMM_VERS = 2.0
CREATION_DATE  = 
ORIGINATOR     = 

OBJECT_NAME    = ORBVIEW 2 (SEASTAR)
OBJECT_ID      = 1997-037A
CENTER_NAME    = EARTH
REF_FRAME      = TEME
TIME_SYSTEM    = UTC
MEAN_ELEMENT_THEORY = SGP/SGP4

EPOCH          = 2026-02-23T04:45:59.667264
MEAN_MOTION    = 14.35482507
ECCENTRICITY   = .00031974
INCLINATION    = 98.8541
RA_OF_ASC_NODE = 218.1285
ARG_OF_PERICENTER = 100.9739
MEAN_ANOMALY   = 259.1806

EPHEMERIS_TYPE = 0
CLASSIFICATION_TYPE = U
NORAD_CAT_ID   = 24883
ELEMENT_SET_NO = 999
REV_AT_EPOCH   = 50639
BSTAR          = .12054914E-3
MEAN_MOTION_DOT = .3E-5
MEAN_MOTION_DDOT = 0

